OBJECT_NAME,OBJECT_ID,EPOCH,MEAN_MOTION,ECCENTRICITY,INCLINATION,RA_OF_ASC_NODE,ARG_OF_PERICENTER,MEAN_ANOMALY,EPHEMERIS_TYPE,CLASSIFICATION_TYPE,NORAD_CAT_ID,ELEMENT_SET_NO,REV_AT_EPOCH,BSTAR,MEAN_MOTION_DOT,MEAN_MOTION_DDOT
STARLINK-35223,2025-198C,2026-06-01T13:08:27.393792,15.34377881,.00014983,53.1587,240.4580,42.8198,317.2921,0,U,65494,999,4147,.60889245E-3,.20237E-3,0
STARLINK-34446,2025-198D,2026-06-01T12:39:02.044800,15.30253220,.00012346,53.1580,241.7500,63.3592,296.7535,0,U,65495,999,4145,.15528227E-2,.45992E-3,0
STARLINK-35212,2025-198E,2026-06-01T12:31:25.750848,15.30203315,.0001437,53.1581,241.7062,119.3239,240.7905,0,U,65496,999,4145,.71391352E-3,.20846E-3,0
STARLINK-34455,2025-198F,2026-06-01T12:59:22.132896,15.34412609,.00012831,53.1585,240.4187,95.0372,265.0777,0,U,65497,999,4147,.78189396E-3,.26144E-3,0
STARLINK-35203,2025-198G,2026-06-01T11:23:12.255360,15.30192456,.00009242,53.1571,242.1320,77.5577,282.5527,0,U,65498,999,4144,.7682858E-3,.22459E-3,0
STARLINK-35166,2025-198H,2026-06-01T12:58:47.218656,15.30194625,.00012128,53.1578,241.8297,104.0643,256.0492,0,U,65499,999,4145,.75079308E-3,.21939E-3,0
STARLINK-35207,2025-198J,2026-06-01T12:34:27.674688,15.30209465,.00014834,53.1583,241.7256,83.7782,276.3388,0,U,65500,999,4145,.95578066E-3,.28064E-3,0
STARLINK-35140,2025-198K,2026-06-01T12:32:05.453376,15.34390526,.00010506,53.1591,240.2997,87.5249,272.5874,0,U,65501,999,4147,.70168737E-3,.23398E-3,0
STARLINK-35114,2025-198L,2026-06-01T13:26:36.959136,15.34409918,.00009676,53.1603,240.5338,119.5542,240.5557,0,U,65502,999,4147,.88084815E-3,.29511E-3,0
STARLINK-35126,2025-198M,2026-06-01T12:29:54.750912,15.30200659,.00010833,53.1596,241.7054,96.5701,263.5423,0,U,65503,999,4145,.66798342E-3,.19477E-3,0
STARLINK-35182,2025-198N,2026-06-01T13:32:41.042688,15.34407799,.00011086,53.1599,240.5580,142.0106,218.0975,0,U,65504,999,4147,.75979289E-3,.25388E-3,0
STARLINK-35072,2025-198P,2026-06-01T12:44:12.505056,15.34391008,.00008332,53.1581,240.3466,97.7743,262.3354,0,U,65505,999,4147,.82102267E-3,.27457E-3,0
STARLINK-35184,2025-198Q,2026-06-01T11:31:36.261120,15.34410788,.00013096,53.1582,240.7510,39.7776,320.3323,0,U,65506,999,4146,.22003929E-3,.7068E-4,0
STARLINK-35163,2025-198R,2026-06-01T12:48:08.724384,15.30204502,.0001122,53.1576,241.7779,81.1103,279.0025,0,U,65507,999,4145,.53146504E-3,.15416E-3,0
STARLINK-35119,2025-198S,2026-06-01T12:07:59.008512,15.34395181,.00010309,53.1595,240.9062,102.6093,257.5025,0,U,65508,999,4146,.76982439E-3,.25719E-3,0
STARLINK-35168,2025-198T,2026-06-01T13:17:32.388576,15.34391008,.00013469,53.1592,240.4927,100.3121,259.8034,0,U,65509,999,4147,.60371334E-3,.2007E-3,0
STARLINK-35122,2025-198U,2026-06-01T11:07:22.973376,15.34379780,.00008514,53.1583,240.6407,87.0604,273.0496,0,U,65510,999,4146,.862026E-3,.28842E-3,0
STARLINK-35124,2025-198V,2026-06-01T17:04:23.332224,15.34405922,.00013174,53.1582,239.3401,115.4192,244.6947,0,U,65511,999,4149,.59045573E-3,.19629E-3,0
STARLINK-35149,2025-198W,2026-06-01T13:14:29.208480,15.34444446,.00016875,53.1594,240.4752,79.3764,280.7429,0,U,65512,999,4147,.11920579E-2,.40173E-3,0
STARLINK-35019,2025-198X,2026-06-01T11:49:47.715168,15.34397539,.0001827,53.1588,240.8256,46.7520,313.3635,0,U,65513,999,4146,.32244923E-3,.10533E-3,0
STARLINK-35026,2025-198Y,2026-06-01T11:30:48.653856,15.30198847,.00008915,53.1576,242.1565,84.4066,275.7037,0,U,65514,999,4144,.65891789E-3,.19206E-3,0
STARLINK-35241,2025-198Z,2026-06-01T12:35:58.847424,15.30206945,.00010399,53.1589,241.7290,80.7935,279.3183,0,U,65515,999,4145,.9629809E-3,.28276E-3,0
STARLINK-35216,2025-198AA,2026-06-01T11:11:02.515776,15.30201763,.00019024,53.1586,242.0765,137.6419,222.4729,0,U,65516,999,4144,.63300936E-3,.18436E-3,0
STARLINK-35228,2025-198AB,2026-06-01T12:35:06.778464,15.34395815,.00006045,53.1591,240.3064,94.1263,265.9809,0,U,65517,999,4147,.83950798E-3,.2809E-3,0
STARLINK-35232,2025-198AC,2026-06-01T12:11:00.055392,15.34394817,.00016422,53.1605,240.9085,114.7777,245.3397,0,U,65518,999,4146,.73882592E-3,.24664E-3,0
STARLINK-35164,2025-198AD,2026-06-01T13:35:43.000224,15.34388698,.00011251,53.1594,240.5643,103.8173,256.2955,0,U,65519,999,4147,.51522884E-3,.17065E-3,0
STARLINK-35112,2025-200A,2026-06-02T03:13:36.758208,15.05660811,.00020384,97.4139,222.4244,130.8251,229.3154,0,U,65520,999,4183,.5587153E-3,.8015E-4,0
STARLINK-35187,2025-200B,2026-06-02T03:57:28.953216,15.05662536,.00013648,97.4135,222.5448,103.8571,256.2809,0,U,65521,999,4184,.44757009E-3,.6408E-4,0
STARLINK-35188,2025-200C,2026-06-02T03:33:33.852672,15.05651430,.00010917,97.4146,222.5685,153.3527,206.7757,0,U,65522,999,4184,.41624461E-3,.5953E-4,0
STARLINK-35078,2025-200D,2026-06-02T04:25:24.071232,15.05618973,.00016672,97.4169,222.5165,121.0511,239.0880,0,U,65523,999,4184,-.14024118E-2,-.20219E-3,0
