STARLINK-35223          
1 65494U 25198C   26152.54753928  .00020237  00000+0  60889-3 0  9999
2 65494  53.1587 240.4580 0001498  42.8198 317.2921 15.34377881 41474
STARLINK-34446          
1 65495U 25198D   26152.52710700  .00045992  00000+0  15528-2 0  9993
2 65495  53.1580 241.7500 0001234  63.3592 296.7535 15.30253220 41454
STARLINK-35212          
1 65496U 25198E   26152.52182582  .00020846  00000+0  71391-3 0  9997
2 65496  53.1581 241.7062 0001437 119.3239 240.7905 15.30203315 41454
STARLINK-34455          
1 65497U 25198F   26152.54122839  .00026144  00000+0  78189-3 0  9998
2 65497  53.1585 240.4187 0001283  95.0372 265.0777 15.34412609 41471
STARLINK-35203          
1 65498U 25198G   26152.47444740  .00022459  00000+0  76829-3 0  9993
2 65498  53.1571 242.1320 0000924  77.5577 282.5527 15.30192456 41443
STARLINK-35166          
1 65499U 25198H   26152.54082429  .00021939  00000+0  75079-3 0  9992
2 65499  53.1578 241.8297 0001212 104.0643 256.0492 15.30194625 41459
STARLINK-35207          
1 65500U 25198J   26152.52393142  .00028064  00000+0  95578-3 0  9992
2 65500  53.1583 241.7256 0001483  83.7782 276.3388 15.30209465 41457
STARLINK-35140          
1 65501U 25198K   26152.52228534  .00023398  00000+0  70169-3 0  9999
2 65501  53.1591 240.2997 0001050  87.5249 272.5874 15.34390526 41476
STARLINK-35114          
1 65502U 25198L   26152.56014999  .00029511  00000+0  88085-3 0  9991
2 65502  53.1603 240.5338 0000967 119.5542 240.5557 15.34409918 41470
STARLINK-35126          
1 65503U 25198M   26152.52077258  .00019477  00000+0  66798-3 0  9992
2 65503  53.1596 241.7054 0001083  96.5701 263.5423 15.30200659 41453
STARLINK-35182          
1 65504U 25198N   26152.56436392  .00025388  00000+0  75979-3 0  9994
2 65504  53.1599 240.5580 0001108 142.0106 218.0975 15.34407799 41479
STARLINK-35072          
1 65505U 25198P   26152.53070029  .00027457  00000+0  82102-3 0  9998
2 65505  53.1581 240.3466 0000833  97.7743 262.3354 15.34391008 41477
STARLINK-35184          
1 65506U 25198Q   26152.48028080  .00007068  00000+0  22004-3 0  9994
2 65506  53.1582 240.7510 0001309  39.7776 320.3323 15.34410788 41461
STARLINK-35163          
1 65507U 25198R   26152.53343431  .00015416  00000+0  53147-3 0  9999
2 65507  53.1576 241.7779 0001122  81.1103 279.0025 15.30204502 41450
STARLINK-35119          
1 65508U 25198S   26152.50554408  .00025719  00000+0  76982-3 0  9994
2 65508  53.1595 240.9062 0001030 102.6093 257.5025 15.34395181 41463
STARLINK-35168          
1 65509U 25198T   26152.55384709  .00020070  00000+0  60371-3 0  9995
2 65509  53.1592 240.4927 0001346 100.3121 259.8034 15.34391008 41473
STARLINK-35122          
1 65510U 25198U   26152.46346034  .00028842  00000+0  86203-3 0  9993
2 65510  53.1583 240.6407 0000851  87.0604 273.0496 15.34379780 41469
STARLINK-35124          
1 65511U 25198V   26152.71138116  .00019629  00000+0  59046-3 0  9990
2 65511  53.1582 239.3401 0001317 115.4192 244.6947 15.34405922 41490
STARLINK-35149          
1 65512U 25198W   26152.55172695  .00040173  00000+0  11921-2 0  9990
2 65512  53.1594 240.4752 0001687  79.3764 280.7429 15.34444446 41477
STARLINK-35019          
1 65513U 25198X   26152.49291337  .00010533  00000+0  32245-3 0  9999
2 65513  53.1588 240.8256 0001827  46.7520 313.3635 15.34397539 41469
STARLINK-35026          
1 65514U 25198Y   26152.47972979  .00019206  00000+0  65892-3 0  9996
2 65514  53.1576 242.1565 0000891  84.4066 275.7037 15.30198847 41441
STARLINK-35241          
1 65515U 25198Z   26152.52498666  .00028276  00000+0  96298-3 0  9990
2 65515  53.1589 241.7290 0001039  80.7935 279.3183 15.30206945 41457
STARLINK-35216          
1 65516U 25198AA  26152.46600134  .00018436  00000+0  63301-3 0  9995
2 65516  53.1586 242.0765 0001902 137.6419 222.4729 15.30201763 41441
STARLINK-35228          
1 65517U 25198AB  26152.52438401  .00028090  00000+0  83951-3 0  9999
2 65517  53.1591 240.3064 0000604  94.1263 265.9809 15.34395815 41473
STARLINK-35232          
1 65518U 25198AC  26152.50763953  .00024664  00000+0  73883-3 0  9997
2 65518  53.1605 240.9085 0001642 114.7777 245.3397 15.34394817 41465
STARLINK-35164          
1 65519U 25198AD  26152.56646991  .00017065  00000+0  51523-3 0  9990
2 65519  53.1594 240.5643 0001125 103.8173 256.2955 15.34388698 41476
STARLINK-35112          
1 65520U 25200A   26153.13445322  .00008015  00000+0  55872-3 0  9991
2 65520  97.4139 222.4244 0002038 130.8251 229.3154 15.05660811 41831
STARLINK-35187          
1 65521U 25200B   26153.16491844  .00006408  00000+0  44757-3 0  9999
2 65521  97.4135 222.5448 0001364 103.8571 256.2809 15.05662536 41844
STARLINK-35188          
1 65522U 25200C   26153.14830848  .00005953  00000+0  41624-3 0  9993
2 65522  97.4146 222.5685 0001091 153.3527 206.7757 15.05651430 41841
STARLINK-35078          
1 65523U 25200D   26153.18430638 -.00020219  00000+0 -14024-2 0  9998
2 65523  97.4169 222.5165 0001667 121.0511 239.0880 15.05618973 41845
